[{"OBJECT_NAME":"ION SCV-004","OBJECT_ID":"2022-002K","EPOCH":"2026-03-09T16:32:03.244416","MEAN_MOTION":15.29369331,"ECCENTRICITY":0.00072157,"INCLINATION":97.2961,"RA_OF_ASC_NODE":128.2294,"ARG_OF_PERICENTER":1.6783,"MEAN_ANOMALY":358.448,"EPHEMERIS_TYPE":0,"CLASSIFICATION_TYPE":"U","NORAD_CAT_ID":50993,"ELEMENT_SET_NO":999,"REV_AT_EPOCH":23008,"BSTAR":0.00023198467,"MEAN_MOTION_DOT":6.538e-5,"MEAN_MOTION_DDOT":0},{"OBJECT_NAME":"STARLINK-35751","OBJECT_ID":"2025-244C","EPOCH":"2026-03-09T18:24:28.018080","MEAN_MOTION":15.30206623,"ECCENTRICITY":7.717e-5,"INCLINATION":53.16,"RA_OF_ASC_NODE":229.3915,"ARG_OF_PERICENTER":106.0153,"MEAN_ANOMALY":254.0933,"EPHEMERIS_TYPE":0,"CLASSIFICATION_TYPE":"U","NORAD_CAT_ID":66208,"ELEMENT_SET_NO":999,"REV_AT_EPOCH":2167,"BSTAR":0.00085508781,"MEAN_MOTION_DOT":0.00025057,"MEAN_MOTION_DDOT":0}]
