ION SCV-004             
1 50993U 22002K   26068.68892644  .00006538  00000+0  23198-3 0  9998
2 50993  97.2961 128.2294 0007216   1.6783 358.4480 15.29369331230088
STARLINK-35751          
1 66208U 25244C   26068.76699095  .00025057  00000+0  85509-3 0  9990
2 66208  53.1600 229.3915 0000772 106.0153 254.0933 15.30206623 21672
